1 29155U 06018A   10048.21332003 -.00000081  00000-0  10000-3 0  9774
2 29155 000.4759 089.5095 0002428 172.6798 216.3290 01.00272176 13712